C/2021 N3 (PANSTARRS),e,26.7624,337.5240,304.6093,140.8274,0.0005898,0.95943558,1.0220,05/16.0/2025,2000,g  8.5,4.0
# From MPEC 2022-A21
C/2021 O1 (Nishimura),e,27.5731,41.5477,74.4222,4656,0.0000031,0.99983187,0.0000,08/14.7252/2021,2000,g 10.5,4.0
# From MPEC 2022-L66
C/2021 O3 (PANSTARRS),h,04/21.2702/2022,56.8249,188.8036,300.0124,1.000050,0.285164,2000,10.5,4.0
# From MPEC 2024-F34
C/2021 P1 (PANSTARRS),e,51.6217,359.7097,40.5244,2740,0.0000069,0.99840138,0.0000,06/02.5897/2022,2000,g 11.0,4.0
# From MPEC 2025-J72
C/2021 P2 (PANSTARRS),e,150.0559,32.0937,76.7174,12712,0.0000007,0.99960132,0.0000,01/23.0790/2023,2000,g  9.0,4.0
# From MPEC 2024-GJ3
P/2021 P3 (PANSTARRS),e,27.1600,358.2486,334.0155,4.412218,0.1063454,0.33837986,154.0477,05/16.0/2025,2000,g 14.0,4.0
# From MPEC 2023-A50
C/2021 P4 (ATLAS),e,56.3701,348.0127,175.8061,295.9602,0.0001936,0.99635534,0.0000,07/30.4158/2022,2000,g  9.5,4.0
# From MPEC 2023-E68
P/2021 PE20 (ATLAS),e,20.0000,99.6247,210.4366,3.745893,0.1359474,0.66993004,195.8275,05/16.0/2025,2000,g 17.0,4.0
# From MPEC 2023-FK0
C/2021 Q3 (ATLAS),e,77.7176,307.9097,114.1438,75.13895,0.0015132,0.93068139,1.8248,05/16.0/2025,2000,g  8.0,4.0
# From MPEC 2025-A40
C/2021 Q4 (Fuls),h,06/11.1962/2023,71.5282,183.3286,147.0613,1.001874,7.565275,2000,6.0,4.0
# From MPEC 2022-C56
P/2021 Q5 (ATLAS),e,10.7385,239.7557,180.9559,3.286939,0.1653928,0.62457731,223.8866,05/16.0/2025,2000,g 15.0,4.0
# From MPEC 2024-UA9
C/2021 Q6 (PANSTARRS),h,03/25.2136/2024,161.8260,133.5741,141.0641,1.002749,8.707744,2000,6.0,4.0
# From MPEC 2023-FK0
C/2021 QM45 (PANSTARRS),e,22.8002,354.5967,72.9163,408.1570,0.0001195,0.99319419,0.0000,08/13.6865/2022,2000,g 11.0,4.0
# From MPEC 2022-X67
P/2021 R1 (PANSTARRS),e,5.5317,143.1176,220.0566,8.256306,0.0415456,0.40839868,52.0906,05/16.0/2025,2000,g 11.0,4.0
# From MPEC 2022-X67
C/2021 R2 (PANSTARRS),e,134.4825,16.3351,32.5499,9964,0.0000010,0.99926573,0.0000,12/28.4268/2021,2000,g  7.5,4.0
# From MPEC 2021-W31
P/2021 R3 (PANSTARRS),e,19.9408,304.1938,2.5942,3.769414,0.1346770,0.33147645,195.5815,05/16.0/2025,2000,g 16.0,4.0
# From MPEC 2021-W31
P/2021 R4 (Wierzchos),e,21.0126,321.2829,56.7742,5.627570,0.0738283,0.58531601,96.7534,05/16.0/2025,2000,g 16.0,4.0
# From MPEC 2024-JU4
P/2021 R5 (Rankin),e,7.8539,219.9615,167.6048,4.797893,0.0937839,0.30598426,114.3743,05/16.0/2025,2000,g 12.0,4.0
# From MPEC 2021-W31
P/2021 R6 (Groeller),e,34.8932,176.1618,220.8772,6.288867,0.0624950,0.59306819,80.7456,05/16.0/2025,2000,g 14.5,4.0
# From MPEC 2022-X67
C/2021 R7 (PANSTARRS),e,158.8743,170.1988,140.3925,989.2484,0.0000317,0.99428403,0.0000,04/17.2717/2021,2000,g 10.5,4.0
# From MPEC 2021-Y10
P/2021 R8 (Sheppard),e,2.2027,167.0664,190.8219,3.020188,0.1877816,0.29257078,247.3721,05/16.0/2025,2000,g 18.5,4.0
# From MPEC 2023-J29
C/2021 S1 (ATLAS),h,03/01.9807/2022,52.0389,299.8572,148.3032,1.002889,6.124710,2000,7.0,4.0
# From MPEC 2025-J72
C/2021 S3 (PANSTARRS),h,02/14.6762/2024,58.5382,215.6095,6.8380,1.000030,1.319823,2000,5.5,4.0
# From MPEC 2025-GB9
C/2021 S4 (Tsuchinshan),e,17.4792,5.4550,73.0348,156.8036,0.0005020,0.95732548,0.2501,05/16.0/2025,2000,g  6.5,4.0
# From MPEC 2022-OB6
C/2021 T1 (Lemmon),e,140.3535,56.8475,51.5819,2764,0.0000068,0.99889278,0.0000,10/14.8231/2021,2000,g 12.5,4.0
# From MPEC 2023-A50
C/2021 T2 (Fuls),h,06/08.3078/2022,117.5151,223.2108,263.5334,1.000538,1.244371,2000,12.0,4.0
# From MPC182879
C/2021 T4 (Lemmon),e,160.7784,257.8898,329.7750,5352,0.0000025,0.99972315,0.0000,07/31.5221/2023,2000,g  7.5,4.0
# From MPEC 2025-H93
P/2021 TR81 (Lemmon),e,36.8155,220.1791,272.0057,8.772936,0.0379303,0.83301776,43.1807,05/16.0/2025,2000,g 15.6,4.0
# From MPEC 2022-ED3
P/2021 U1 (Wierzchos),e,30.5514,246.7937,145.2332,8.539594,0.0394956,0.71268619,52.2604,05/16.0/2025,2000,g 14.5,4.0
# From MPEC 2022-L66
P/2021 U3 (Attard-Maury),e,69.9620,75.0938,335.3228,4.196903,0.1146333,0.54943666,148.9238,05/16.0/2025,2000,g 15.5,4.0
# From MPEC 2021-W31
C/2021 U4 (Leonard),e,152.8837,241.8061,237.3259,45.48068,0.0032134,0.96069748,3.9862,05/16.0/2025,2000,g 17.0,4.0
# From MPEC 2022-WQ9
C/2021 U5 (Catalina),e,39.0403,182.6822,321.4569,222.0266,0.0002979,0.98937435,0.0000,01/26.9606/2022,2000,g 13.0,4.0
# From MPEC 2022-CN4
C/2021 V1 (Rankin),e,71.4374,207.6958,195.2136,716.1431,0.0000514,0.99578442,0.0000,04/30.6187/2022,2000,g 13.0,4.0
# From MPEC 2024-JU4
P/2021 V2 (Fuls),e,12.6931,232.2763,259.9009,9.089428,0.0359666,0.61523560,30.3936,05/16.0/2025,2000,g 10.0,4.0
# From MPEC 2024-TD8
C/2021 X1 (Maury-Attard),h,05/27.2718/2023,140.1066,10.6131,334.6122,1.000572,3.234522,2000,7.0,4.0
# From MPEC 2024-E08
C/2021 X2 (Bok),h,07/08.3537/2022,137.1547,228.8400,193.3811,1.001483,2.997887,2000,13.0,4.0
# From MPEC 2024-GJ3
C/2021 Y1 (ATLAS),h,04/30.9135/2023,77.1886,244.7668,245.8484,1.001561,2.032505,2000,7.0,4.0
# From MPEC 2022-YN2
C/2022 A1 (Sarneczky),e,116.5704,285.4937,201.2798,369.9704,0.0001385,0.99660518,0.0000,01/31.1231/2022,2000,g 18.0,4.0
# From MPEC 2024-P23
C/2022 A2 (PANSTARRS),h,02/18.1854/2023,108.1658,171.6021,88.3668,1.000070,1.735393,2000,9.5,4.0
# From MPEC 2024-UQ8
C/2022 A3 (Lemmon-ATLAS),e,88.3488,325.4588,234.8692,891.0296,0.0000371,0.99584266,0.0000,09/28.9494/2023,2000,g  8.0,4.0
# From MPEC 2022-K19
P/2022 B1 (Wierzchos),e,10.9941,325.3856,148.9318,5.469119,0.0770598,0.65361711,90.5471,05/16.0/2025,2000,g 16.5,4.0
# From MPEC 2022-YB4
A/2022 B3,e,132.0509,286.1771,150.7152,636.3753,0.0000614,0.99417976,0.0000,01/16.7488/2022,2000,g 16.5,2.0
# From MPEC 2022-GA9
C/2022 B4 (Bok),e,20.0563,340.5229,153.0163,404.4053,0.0001212,0.99659750,0.0000,01/30.4101/2022,2000,g 21.0,4.0
# From MPEC 2023-J29
P/2022 BV9 (Lemmon),e,11.9241,337.3090,16.3145,4.365587,0.1080538,0.23358468,180.0858,05/16.0/2025,2000,g  9.5,4.0
# From MPEC 2023-J29
P/2022 C1 (PANSTARRS),e,4.7630,113.1003,9.4528,7.233831,0.0506584,0.44911357,65.2260,05/16.0/2025,2000,g 12.0,4.0
# From MPEC 2023-VM5
P/2022 C2 (PANSTARRS),e,9.9848,135.2630,89.1406,6.033237,0.0665087,0.44196310,67.4473,05/16.0/2025,2000,g 12.5,4.0
# From MPEC 2023-UR6
P/2022 C3 (PANSTARRS),e,12.8247,139.0406,93.8082,9.616057,0.0330528,0.54548463,34.7316,05/16.0/2025,2000,g 11.5,4.0
# From MPEC 2022-K19
P/2022 D1 (PANSTARRS),e,44.0677,47.9492,88.6618,7.405639,0.0489058,0.54796408,66.3289,05/16.0/2025,2000,g 12.5,4.0
# From MPEC 2022-K19
C/2022 D2 (Kowalski),e,22.6792,312.3641,177.8498,396.3528,0.0001249,0.99608259,0.0000,03/28.0179/2022,2000,g 17.0,4.0
# From MPEC 2022-L66
P/2022 E1 (Christensen),e,19.0070,113.3419,114.9057,3.777930,0.1342219,0.22058663,143.8327,05/16.0/2025,2000,g 13.5,4.0
# From MPEC 2025-J72
C/2022 E2 (ATLAS),h,09/14.1395/2024,137.1410,125.3974,41.7472,1.000424,3.666428,2000,5.0,4.0
# From MPEC 2024-GJ3
C/2022 E3 (ZTF),e,109.1745,302.5117,145.8252,210704,0.0000000,0.99999471,0.0000,01/12.5365/2023,2000,g  7.5,4.0
# From MPEC 2024-PC5
C/2022 F1 (ATLAS),e,58.0044,350.6345,278.3362,8343,0.0000013,0.99928359,0.0000,08/05.7230/2022,2000,g  7.0,4.0
# From MPEC 2022-QD9
C/2022 F2 (NEOWISE),e,97.3163,58.7824,200.5951,23.78121,0.0084987,0.93316393,9.7785,05/16.0/2025,2000,g 14.5,4.0
# From MPEC 2024-JU4
C/2022 H1 (PANSTARRS),e,49.8599,6.3287,246.2921,854.4715,0.0000395,0.99100114,0.0000,01/18.6718/2024,2000,g  6.0,4.0
# From MPEC 2022-VC5
C/2022 J1 (Maury-Attard),e,105.9593,280.8010,305.6152,47.50766,0.0030099,0.96631290,3.5568,05/16.0/2025,2000,g 14.9,4.0
# From MPEC 2023-M14
C/2022 J2 (Bok),e,149.1412,252.6790,133.1400,89.99152,0.0011545,0.97968673,0.0000,10/26.7240/2022,2000,g  9.0,4.0
# From MPEC 2024-YC7
C/2022 JK5 (PANSTARRS),e,16.8252,59.6518,247.3830,43.93128,0.0033849,0.93864698,2.5319,05/16.0/2025,2000,g 11.0,4.0
# From MPEC 2022-ST7
C/2022 K1 (Leonard),h,12/16.6497/2021,41.9737,136.3578,142.5537,1.000916,3.986239,2000,11.0,4.0
# From MPEC 2023-CD7
C/2022 L1 (Catalina),e,123.4392,300.0319,59.8063,430.9952,0.0001102,0.99630842,0.0000,09/27.7870/2022,2000,g 15.8,4.0
# From MPEC 2025-J72
C/2022 L2 (ATLAS),h,03/12.2092/2024,129.3131,39.2423,199.9208,1.000892,2.693205,2000,6.5,4.0
# From MPEC 2024-DC6
P/2022 L3 (ATLAS),e,21.5381,29.8224,10.4107,6.506174,0.0593903,0.62747460,55.1809,05/16.0/2025,2000,g 16.5,4.0
# From MPEC 2022-N37
C/2022 L4 (PANSTARRS),e,141.2440,66.0622,125.2577,282.4815,0.0002076,0.98934763,0.0000,12/09.0681/2021,2000,g 14.0,4.0
# From MPEC 2024-GJ3
C/2022 N1 (Attard-Maury),e,164.7270,301.8786,40.9989,36.64439,0.0044432,0.95963422,4.3507,05/16.0/2025,2000,g 16.9,4.0
# From MPEC 2025-GB9
C/2022 N2 (PANSTARRS),h,07/31.7878/2025,5.5029,319.7404,75.3951,1.003292,3.825385,2000,6.0,4.0
# From MPEC 2024-A43
C/2022 O1 (ATLAS),h,02/15.4494/2022,71.0498,49.9118,268.9420,1.001430,7.434761,2000,6.0,4.0
# From MPEC 2023-HD1
P/2022 O2 (PANSTARRS),e,9.4189,330.4917,48.6660,6.305318,0.0622506,0.72098818,53.5501,05/16.0/2025,2000,g 16.2,4.0
# From MPEC 2023-N01
C/2022 P1 (NEOWISE),e,154.5886,205.0703,249.8813,18.47152,0.0124151,0.91378407,11.1650,05/16.0/2025,2000,g 13.0,4.0
# From MPEC 2023-XP6
P/2022 P2 (ZTF),e,12.4408,291.1755,137.7681,4.491568,0.1035398,0.55802156,107.6775,05/16.0/2025,2000,g 12.5,4.0
# From MPEC 2023-HD1
C/2022 P3 (ZTF),e,59.5165,72.2182,0.2153,262.8687,0.0002313,0.99023825,0.0000,07/27.5270/2022,2000,g  9.0,4.0
# From MPEC 2023-R20
C/2022 Q2 (ATLAS),e,151.4604,352.9614,44.0353,32.79657,0.0052476,0.94993777,4.3832,05/16.0/2025,2000,g 13.0,4.0
# From MPEC 2025-J92
C/2022 QE78 (ATLAS),h,09/11.4561/2025,36.6068,119.8916,0.5658,1.003409,5.476076,2000,5.0,4.0
# From MPEC 2024-M41
P/2022 R1 (PANSTARRS),e,7.3769,175.6787,221.8009,7.148452,0.0515687,0.50115980,30.4007,05/16.0/2025,2000,g 11.5,4.0
# From MPEC 2022-Y15
C/2022 R2 (ATLAS),e,52.8950,60.3955,78.3209,437.8473,0.0001076,0.99856038,0.0000,10/25.5300/2022,2000,g 17.0,4.0
# From MPC182880
C/2022 R3 (Leonard),h,03/05.9057/2023,43.0728,8.2582,72.9309,1.001522,5.131848,2000,9.0,4.0
# From MPEC 2022-X67
P/2022 R4 (PANSTARRS),e,21.0099,176.6351,197.4952,3.838501,0.1310574,0.48949263,136.4403,05/16.0/2025,2000,g 16.5,4.0
